LEMUR-1                 
1 40044U 14033AL  26199.21561495  .00000705  00000+0  86805-4 0  9995
2 40044  97.7913 348.3393 0047485 337.9146  22.0022 14.85341695650076
LEMUR-2-GREENBERG       
1 42837U 17042N   26199.05111860  .00009701  00000+0  31416-3 0  9991
2 42837  97.3835  19.5561 0007322 247.3182 112.7286 15.32207983493114
LEMUR-2-ANDIS           
1 42838U 17042P   26199.07205633  .00012392  00000+0  35543-3 0  9991
2 42838  97.3688  19.8725 0007324 246.3680 113.6795 15.35996922493194
LEMUR-2-MONSON          
1 42839U 17042Q   26199.45485007  .00007815  00000+0  28173-3 0  9994
2 42839  97.4097  19.8815 0005517 231.1425 128.9323 15.28804140492941
LEMUR-2-FURIAUS         
1 42840U 17042R   26199.45805150  .00009448  00000+0  31589-3 0  9990
2 42840  97.3785  17.8461 0005694 315.3320  44.7462 15.31195052492999
LEMUR-2-PETERG          
1 42841U 17042S   26199.79164351  .00010973  00000+0  32428-3 0  9997
2 42841  97.4000  24.9034 0003567 205.0098 155.0973 15.35108847493286
LEMUR-2-DEMBITZ         
1 42842U 17042T   26199.73925263  .00008375  00000+0  28055-3 0  9993
2 42842  97.3837  21.1724 0005122 257.8927 102.1741 15.31174001493179
LEMUR-2-ZACHARY         
1 42845U 17042W   26199.85425560  .00029457  00000+0  47386-3 0  9996
2 42845  97.3577  32.2256 0002816 227.5317 132.5698 15.52943415494119
LEMUR-2-AMANDA-SVANTE   
1 48269U 21034B   26199.77316791  .00017742  00000+0  50629-3 0  9992
2 48269  97.5742 278.9334 0004767 134.6151 225.5482 15.36094086285900
LEMUR-2-SPECIAL-K       
1 48273U 21034F   26199.19205281  .00182920  00000+0  11691-2 0  9990
2 48273  97.5639 288.5518 0006128 212.7149 147.3737 15.75793092286551
LEMUR-2-EMBRIONOVIS     
1 56970U 23084AQ  26199.82281463  .00007808  00000+0  20904-3 0  9995
2 56970  97.6331 345.2609 0008656 192.7646 167.3380 15.38288175172542
LEMUR-2-DEVERILL-M-T    
1 57391U 23100F   26199.86672932  .00015314  00000+0  37138-3 0  9999
2 57391  99.4446 247.8136 0004780 281.3720  78.6983 15.41202904166121
LEMUR-2-BASS            
1 58259U 23174D   26199.78018772  .00009815  00000+0  21659-3 0  9991
2 58259  97.3840 284.9557 0007428  67.4696 292.7337 15.44067453150234
LEMUR-2-JK0903EM1407    
1 58336U 23174CJ  26199.79136325  .00016516  00000+0  26446-3 0  9998
2 58336  97.3918 291.1881 0003255  18.9836 341.1537 15.53187728150630
LEMUR-2-MJR092620       
1 58340U 23174CN  26199.75603900  .00010325  00000+0  21387-3 0  9998
2 58340  97.3969 290.3915 0004969  17.5826 342.5595 15.45941359150523
LEMUR-2-NIMBUS2000      
1 58899U 24022A   26199.83956377  .00012108  00000+0  29326-3 0  9990
2 58899  97.4079  50.2613 0008366  16.0320 344.1190 15.41208925137144
